{
  "norad_id": 64439,
  "name": "STARLINK-34456",
  "history": [
    {
      "epoch": "2026-03-28T11:46:04.729728Z",
      "apogee_km": 476.47440606291093,
      "perigee_km": 473.894541727278,
      "latitude_deg": 4.308972657698994e-06,
      "longitude_deg": -1.365433541612508,
      "height_km": 476.279396608822,
      "semi_major_axis_km": 6853.321473895094,
      "eccentricity": 0.00018822,
      "inclination_deg": 53.162,
      "raan_deg": 1.0643,
      "arg_perigee_deg": 98.8056,
      "mean_anomaly_deg": 261.3158,
      "mean_motion_rev_day": 15.30210247
    },
    {
      "epoch": "2026-03-29T03:26:36.652992Z",
      "apogee_km": 475.93084784788243,
      "perigee_km": 474.4765689495607,
      "latitude_deg": -4.070491189413565e-05,
      "longitude_deg": 119.82494788222901,
      "height_km": 476.0187805499631,
      "semi_major_axis_km": 6853.340708398721,
      "eccentricity": 0.0001061,
      "inclination_deg": 53.1622,
      "raan_deg": 358.0315,
      "arg_perigee_deg": 83.4027,
      "mean_anomaly_deg": 276.7094,
      "mean_motion_rev_day": 15.30203805
    },
    {
      "epoch": "2026-03-30T02:57:24.606144Z",
      "apogee_km": 475.7641409735743,
      "perigee_km": 474.66212227240885,
      "latitude_deg": -2.749290533810434e-06,
      "longitude_deg": 121.61011418374676,
      "height_km": 475.71253549836644,
      "semi_major_axis_km": 6853.350131622991,
      "eccentricity": 8.04e-05,
      "inclination_deg": 53.1626,
      "raan_deg": 353.4821,
      "arg_perigee_deg": 43.467,
      "mean_anomaly_deg": 316.6394,
      "mean_motion_rev_day": 15.30200649
    },
    {
      "epoch": "2026-03-30T02:57:24.607008Z",
      "apogee_km": 475.76386683956844,
      "perigee_km": 474.6623964064147,
      "latitude_deg": -2.1391439531152003e-07,
      "longitude_deg": 121.6101124626729,
      "height_km": 475.7127344535555,
      "semi_major_axis_km": 6853.350131622991,
      "eccentricity": 8.036e-05,
      "inclination_deg": 53.1626,
      "raan_deg": 353.4821,
      "arg_perigee_deg": 43.467,
      "mean_anomaly_deg": 316.6394,
      "mean_motion_rev_day": 15.30200649
    },
    {
      "epoch": "2026-03-30T10:47:40.845120Z",
      "apogee_km": 476.1371170528628,
      "perigee_km": 474.31001112647755,
      "latitude_deg": 4.1438147921894154e-05,
      "longitude_deg": 2.2009962592940946,
      "height_km": 476.12441974538774,
      "semi_major_axis_km": 6853.36056408967,
      "eccentricity": 0.0001333,
      "inclination_deg": 53.1612,
      "raan_deg": 351.9625,
      "arg_perigee_deg": 90.1722,
      "mean_anomaly_deg": 269.9432,
      "mean_motion_rev_day": 15.30197155
    },
    {
      "epoch": "2026-03-30T21:46:03.057312Z",
      "apogee_km": 475.92545785166385,
      "perigee_km": 474.44335856392354,
      "latitude_deg": 5.23528308873672e-05,
      "longitude_deg": -164.96518427325944,
      "height_km": 476.03178870068484,
      "semi_major_axis_km": 6853.321408207793,
      "eccentricity": 0.00010813,
      "inclination_deg": 53.162,
      "raan_deg": 349.8395,
      "arg_perigee_deg": 86.0408,
      "mean_anomaly_deg": 274.0717,
      "mean_motion_rev_day": 15.30210269
    },
    {
      "epoch": "2026-03-31T21:16:51.205728Z",
      "apogee_km": 475.7592243600511,
      "perigee_km": 474.5489331555427,
      "latitude_deg": 4.1795721484235144e-05,
      "longitude_deg": -163.18116916452868,
      "height_km": 476.15559572423973,
      "semi_major_axis_km": 6853.291078757797,
      "eccentricity": 8.83e-05,
      "inclination_deg": 53.1609,
      "raan_deg": 345.2898,
      "arg_perigee_deg": 99.7814,
      "mean_anomaly_deg": 260.3287,
      "mean_motion_rev_day": 15.30220427
    },
    {
      "epoch": "2026-04-01T00:24:57.652416Z",
      "apogee_km": 475.96199585052636,
      "perigee_km": 474.399302360177,
      "latitude_deg": -1.1650246283737247e-05,
      "longitude_deg": 149.05847502687675,
      "height_km": 475.84167282936113,
      "semi_major_axis_km": 6853.317649105351,
      "eccentricity": 0.00011401,
      "inclination_deg": 53.1609,
      "raan_deg": 344.6851,
      "arg_perigee_deg": 72.3113,
      "mean_anomaly_deg": 287.8012,
      "mean_motion_rev_day": 15.30211528
    },
    {
      "epoch": "2026-04-02T15:36:17.026848Z",
      "apogee_km": 476.28965661034727,
      "perigee_km": 473.99627500258975,
      "latitude_deg": -5.674272681719818e-06,
      "longitude_deg": -87.9645689971408,
      "height_km": 475.9691939590189,
      "semi_major_axis_km": 6853.279965806468,
      "eccentricity": 0.00016732,
      "inclination_deg": 53.1596,
      "raan_deg": 337.1022,
      "arg_perigee_deg": 86.4373,
      "mean_anomaly_deg": 273.6819,
      "mean_motion_rev_day": 15.30224149
    },
    {
      "epoch": "2026-04-02T23:26:32.792352Z",
      "apogee_km": 476.1152263930144,
      "perigee_km": 474.19877125918174,
      "latitude_deg": 7.204538402991144e-06,
      "longitude_deg": 152.6277678057279,
      "height_km": 476.0775704508221,
      "semi_major_axis_km": 6853.293998826098,
      "eccentricity": 0.00013982,
      "inclination_deg": 53.1599,
      "raan_deg": 335.5821,
      "arg_perigee_deg": 91.3561,
      "mean_anomaly_deg": 268.76,
      "mean_motion_rev_day": 15.30219449
    },
    {
      "epoch": "2026-04-03T19:49:15.047040Z",
      "apogee_km": 476.0054154911759,
      "perigee_km": 474.52919220412696,
      "latitude_deg": 3.4213072995910646e-05,
      "longitude_deg": -157.82748463319336,
      "height_km": 476.09830092280185,
      "semi_major_axis_km": 6853.404303847651,
      "eccentricity": 0.0001077,
      "inclination_deg": 53.1582,
      "raan_deg": 331.6398,
      "arg_perigee_deg": 84.7809,
      "mean_anomaly_deg": 275.3315,
      "mean_motion_rev_day": 15.30182506
    },
    {
      "epoch": "2026-04-04T20:54:06.092640Z",
      "apogee_km": 476.43344519916354,
      "perigee_km": 474.1964784788197,
      "latitude_deg": 7.576241077110831e-06,
      "longitude_deg": -179.92602906551144,
      "height_km": 476.4657688706153,
      "semi_major_axis_km": 6853.451961838991,
      "eccentricity": 0.0001632,
      "inclination_deg": 53.1585,
      "raan_deg": 326.784,
      "arg_perigee_deg": 103.0922,
      "mean_anomaly_deg": 257.0261,
      "mean_motion_rev_day": 15.30166545
    },
    {
      "epoch": "2026-04-05T07:52:29.008992Z",
      "apogee_km": 475.990281373196,
      "perigee_km": 474.508442174053,
      "latitude_deg": 9.682610108177678e-06,
      "longitude_deg": 12.902740569376824,
      "height_km": 476.07047566417157,
      "semi_major_axis_km": 6853.386361773624,
      "eccentricity": 0.00010811,
      "inclination_deg": 53.1577,
      "raan_deg": 324.6589,
      "arg_perigee_deg": 84.0368,
      "mean_anomaly_deg": 276.0756,
      "mean_motion_rev_day": 15.30188515
    },
    {
      "epoch": "2026-04-05T20:24:54.673920Z",
      "apogee_km": 476.0126996942481,
      "perigee_km": 474.399422737637,
      "latitude_deg": -1.93932833202751e-05,
      "longitude_deg": -178.14443772479024,
      "height_km": 476.32966910190027,
      "semi_major_axis_km": 6853.343061215942,
      "eccentricity": 0.0001177,
      "inclination_deg": 53.1576,
      "raan_deg": 322.2337,
      "arg_perigee_deg": 106.2411,
      "mean_anomaly_deg": 253.8719,
      "mean_motion_rev_day": 15.30203017
    },
    {
      "epoch": "2026-04-06T01:07:04.085184Z",
      "apogee_km": 475.8989296931595,
      "perigee_km": 474.44219063817036,
      "latitude_deg": 5.2285378276942856e-05,
      "longitude_deg": 110.21367219638574,
      "height_km": 476.1687646707458,
      "semi_major_axis_km": 6853.307560165665,
      "eccentricity": 0.00010628,
      "inclination_deg": 53.1574,
      "raan_deg": 321.3241,
      "arg_perigee_deg": 97.9006,
      "mean_anomaly_deg": 262.2116,
      "mean_motion_rev_day": 15.30214907
    },
    {
      "epoch": "2026-04-07T00:37:51.315168Z",
      "apogee_km": 475.8667625528433,
      "perigee_km": 474.54009291284274,
      "latitude_deg": 5.500779517813854e-05,
      "longitude_deg": 111.99773067833495,
      "height_km": 475.96850499749524,
      "semi_major_axis_km": 6853.340427732843,
      "eccentricity": 9.679e-05,
      "inclination_deg": 53.1582,
      "raan_deg": 316.7706,
      "arg_perigee_deg": 78.413,
      "mean_anomaly_deg": 281.698,
      "mean_motion_rev_day": 15.30203899
    },
    {
      "epoch": "2026-04-07T21:00:33.027264Z",
      "apogee_km": 475.9799394499687,
      "perigee_km": 474.4393071290542,
      "latitude_deg": -4.4666492361622e-05,
      "longitude_deg": 161.54244839556242,
      "height_km": 476.0155582100915,
      "semi_major_axis_km": 6853.346623289512,
      "eccentricity": 0.0001124,
      "inclination_deg": 53.1587,
      "raan_deg": 312.8261,
      "arg_perigee_deg": 83.1243,
      "mean_anomaly_deg": 276.9885,
      "mean_motion_rev_day": 15.30201824
    },
    {
      "epoch": "2026-04-08T14:15:08.183808Z",
      "apogee_km": 475.9150985306778,
      "perigee_km": 474.4380723867398,
      "latitude_deg": 5.952420439467778e-08,
      "longitude_deg": -101.14925499387009,
      "height_km": 475.88500533672243,
      "semi_major_axis_km": 6853.313585458709,
      "eccentricity": 0.00010776,
      "inclination_deg": 53.1593,
      "raan_deg": 309.489,
      "arg_perigee_deg": 75.0998,
      "mean_anomaly_deg": 285.0122,
      "mean_motion_rev_day": 15.30212889
    },
    {
      "epoch": "2026-04-09T18:28:05.729664Z",
      "apogee_km": 475.77355969230484,
      "perigee_km": 474.5851946325056,
      "latitude_deg": 4.491026557286992e-06,
      "longitude_deg": -171.0084189112434,
      "height_km": 476.04813015286686,
      "semi_major_axis_km": 6853.316377162405,
      "eccentricity": 8.67e-05,
      "inclination_deg": 53.1601,
      "raan_deg": 304.0284,
      "arg_perigee_deg": 87.1175,
      "mean_anomaly_deg": 272.9925,
      "mean_motion_rev_day": 15.30211954
    }
  ]
}